0 STARLINK-1958
1 47559U 21009M   23092.31456030  .00020363  00000-0  13824-2 0  9994
2 47559  53.0522 135.6975 0001652  79.1200 280.9975 15.06389519120053
0 STARLINK-1957
1 47558U 21009L   23092.54954295  .00026663  00000-0  18004-2 0  9998
2 47558  53.0517 144.6429 0001393  70.8259 289.2880 15.06434913119339
0 STARLINK-1956
1 47557U 21009K   23092.50254050  .00013884  00000-0  94955-3 0  9996
2 47557  53.0542 174.8548 0001532  91.7504 268.3660 15.06384550118911
0 STARLINK-1955
1 47556U 21009J   23091.47785667  .00033966  00000-0  22867-2 0  9998
2 47556  53.0547 179.4535 0001325 106.4969 253.6166 15.06423858118756
0 STARLINK-1954
1 47555U 21009H   23091.90726965  .00002057  00000-0  15695-3 0  9990
2 47555  53.0551 157.5277 0002200  70.9629 289.1598 15.06401891119107
0 STARLINK-1953
1 47554U 21009G   23091.93213579  .00011435  00000-0  78498-3 0  9994
2 47554  53.0552 167.4143 0001819  66.0746 294.0433 15.06417098118962
0 STARLINK-1940
1 47552U 21009E   23091.86027618  .00010140  00000-0  69890-3 0  9999
2 47552  53.0536 147.7369 0001572  91.7736 268.3433 15.06384923119238
0 STARLINK-1938
1 47551U 21009D   23092.85087265  .00021973  00000-0  14890-2 0  9997
2 47551  53.0539 153.2870 0001458  66.8144 293.2998 15.06410688119240
0 STARLINK-1909
1 47550U 21009C   23092.25927149  .00003527  00000-0  25554-3 0  9999
2 47550  53.0534 135.9458 0001458  77.1887 282.9265 15.06398235120047
0 STARLINK-1806
1 47549U 21009B   23092.51268725  .00007054  00000-0  49211-3 0  9999
2 47549  53.0541 144.8095 0001298  94.2124 265.9014 15.06387334119336
0 STARLINK-1782
1 47548U 21009A   23092.58270628  .00025302  00000-0  17103-2 0  9990
2 47548  53.0529 144.4945 0001301  67.1247 292.9879 15.06423635119346
0 COSMOS 2549
1 47546U 21008A   23092.78530805 -.00000816  00000-0 -53358-3 0  9993
2 47546  67.1507 312.9126 0006586 258.8314 101.2033 13.96667840110220
0 FLOCK 4S 23
1 47545U 21006EF  23091.72959515  .00102380  00000-0  30725-2 0  9995
2 47545  97.3956 151.5731 0004881 338.6540  21.4498 15.34034371122058
0 FLOCK 4S 30
1 47544U 21006EE  23091.16118792  .00033462  00000-0  12806-2 0  9990
2 47544  97.3955 149.8776 0005468  24.4227 335.7269 15.26478900121900
0 FLOCK 4S 1
1 47543U 21006ED  23091.89867140  .00058117  00000-0  22002-2 0  9990
2 47543  97.3956 150.8792 0006364 346.9402  13.1671 15.26694426120145
0 FLOCK 4S 25
1 47542U 21006EC  23092.68960716  .00059274  00000-0  22600-2 0  9999
2 47542  97.3947 151.6563 0006990 354.8211   5.2954 15.26448367120260
0 HIBER-4
1 47541U 21006EB  23092.59859129  .00024023  00000-0  10302-2 0  9993
2 47541  97.3917 150.5994 0008400 359.8778   0.2455 15.22703271121135
0 FLOCK 4S 20
1 47540U 21006EA  23091.89737455  .00052508  00000-0  20060-2 0  9992
2 47540  97.4029 151.6801 0007205   0.7580 359.3668 15.26416350120140
0 FLOCK 4S 24
1 47539U 21006DZ  23092.16327140  .00051892  00000-0  19894-2 0  9995
2 47539  97.3974 151.3576 0007407 357.3746   2.7452 15.26302325121115
0 LEMUR 2 NOOBNOOB
1 47538U 21006DY  23091.13457825  .00046742  00000-0  17049-2 0  9992
2 47538  97.4029 151.6484 0006246   1.1123 359.0129 15.27986015121002
0 CZ-4C R/B
1 47537U 21007F   23091.62287258 -.00000038  00000-0  59501-4 0  9997
2 47537  63.4560 196.6088 0189584  12.2831 348.2734 13.67825948108397
0 YAOGAN-31 F
1 47536U 21007E   23091.56871841 -.00000030  00000-0  10000-3 0  9998
2 47536  63.4064 274.1798 0071025 354.2811   5.7396 13.45254143106602
0 CZ-4C DEB
1 47535U 21007D   23091.82761226 -.00000090  00000-0  00000-0 0  9993
2 47535  63.4339 278.8315 0068401 356.7286   3.3285 13.43907376106522
0 CZ-4C DEB
1 47534U 21007C   23092.84854357 -.00000090  00000-0  00000-0 0  9993
2 47534  63.4311 274.7010 0070101 358.3698   1.7089 13.44314577106691
0 YAOGAN-31 E
1 47533U 21007B   23091.56893414 -.00000030  00000-0  10000-3 0  9995
2 47533  63.4067 274.1691 0071238 354.2253   5.7947 13.45253950106595
0 YAOGAN-31 D
1 47532U 21007A   23092.23794426 -.00000030  00000-0  10000-3 0  9992
2 47532  63.4067 273.3800 0071038 354.1454   5.8737 13.45254003106674
0 KEPLER-9 (ARTEMIS)
1 47531U 21006DX  23092.10209258  .00030598  00000-0  13028-2 0  9993
2 47531  97.4059 150.5733 0006383  21.4617 338.6886 15.22909035121968
0 FLOCK 4S 36
1 47530U 21006DW  23091.17310568  .00035649  00000-0  13653-2 0  9991
2 47530  97.4018 150.6376 0005395  24.5489 335.6005 15.26440285121904
0 LEMUR 2 CHANTAL
1 47529U 21006DV  23091.71750530  .00034615  00000-0  13505-2 0  9994
2 47529  97.3969 150.2357 0004184  17.6813 342.4570 15.25835272121962
0 FLOCK 4S 14
1 47528U 21006DU  23091.63030615  .00024564  00000-0  94087-3 0  9996
2 47528  97.4041 151.1996 0005808  22.6160 337.5334 15.26514287121972
0 FLOCK 4S 7
1 47527U 21006DT  23091.88592650  .00045714  00000-0  17428-2 0  9997
2 47527  97.3939 150.4631 0005686  22.5606 337.5881 15.26531601122014
0 KEPLER-14 (STELLA)
1 47526U 21006DS  23092.69904651  .00013936  00000-0  67020-3 0  9999
2 47526  97.3941 148.9921 0008071  24.0683 336.0927 15.18882206121995
0 LEMUR 2 JENNIFERSONG
1 47525U 21006DR  23092.14659771  .00052792  00000-0  18069-2 0  9999
2 47525  97.3997 152.7642 0006111 354.8339   5.2837 15.30037193121203
0 OBJECT DQ
1 47524U 21006DQ  23092.40777662  .00025049  00000-0  11126-2 0  9999
2 47524  97.3919 149.1579 0007242  26.6283 101.1701 15.21504555121020
0 FLOCK 4S 10
1 47523U 21006DP  23092.57748972  .00025590  00000-0  97689-3 0  9998
2 47523  97.3976 151.3689 0005722  22.7723 337.3769 15.26617617121156
0 FLOCK 4S 37
1 47522U 21006DN  23092.80138119  .00040770  00000-0  15497-2 0  9992
2 47522  97.4031 152.3479 0005416  18.7366 341.4071 15.26659815122164
0 FLOCK 4S 15
1 47521U 21006DM  23091.60754296  .00074324  00000-0  24726-2 0  9995
2 47521  97.4037 150.8772 0003021  14.4293 345.7034 15.30865654121957
0 FLOCK 4S 29
1 47520U 21006DL  23091.74495952  .00041828  00000-0  15940-2 0  9991
2 47520  97.3947 150.4095 0005454  18.3973 341.7462 15.26568331121036
0 ASTROCAST-0104
1 47519U 21006DK  23092.72347844  .00010840  00000-0  54654-3 0  9990
2 47519  97.4062 149.5128 0008240   7.3888 352.7466 15.17291729121016
0 FLOCK 4S 6
1 47518U 21006DJ  23092.73052021  .00039181  00000-0  14956-2 0  9999
2 47518  97.3944 151.3212 0005867  18.8659 341.2796 15.26526862122157
0 ASTROCAST-0105
1 47517U 21006DH  23091.89742879  .00010242  00000-0  53266-3 0  9996
2 47517  97.3917 147.2020 0007399  24.8542 335.3046 15.16221198120857
0 FLOCK 4S 16
1 47516U 21006DG  23092.10897312  .00099845  00000-0  29778-2 0  9999
2 47516  97.4024 152.3278 0003004 347.4140  12.7027 15.34249391122082
0 FLOCK 4S 5
1 47515U 21006DF  23092.59116416  .00060588  00000-0  23090-2 0  9993
2 47515  97.3916 151.0564 0006158  15.1823 344.9599 15.26462304121168
0 FLOCK 4S 28
1 47514U 21006DE  23091.80148039  .00017436  00000-0  66816-3 0  9999
2 47514  97.3930 150.3566 0005768  16.5953 343.5473 15.26569757122002
0 FLOCK 4S 38
1 47512U 21006DD  23091.88242195  .00038149  00000-0  14814-2 0  9997
2 47512  97.4064 151.4890 0005363  16.9831 343.1586 15.25964228121046
0 LEMUR 2 RUAIRI-EILIDH
1 47511U 21006DC  23092.91995443  .00031647  00000-0  12062-2 0  9991
2 47511  97.3979 151.8717 0004711   7.4349 352.6958 15.26629933121226
0 ICEYE-X8
1 47510U 21006DB  23091.26551370  .00015820  00000-0  76184-3 0  9995
2 47510  97.3994 148.0504 0007539  17.1285  69.2607 15.18809455120818
0 GHGSAT-C2
1 47509U 21006DA  23092.66465359  .00009373  00000-0  48036-3 0  9990
2 47509  97.3878 147.9626 0008109  16.5772 343.5725 15.16758637120999
0 HAWK-2B
1 47508U 21006CZ  23092.18060341  .00007801  00000-0  40832-3 0  9998
2 47508  97.3957 148.0957 0009748  17.4455 342.7111 15.16058066120914
0 XR-1
1 47507U 21006CY  23092.15479922  .00021282  00000-0  96100-3 0  9991
2 47507  97.4050 150.4031 0007321  12.0989 348.0421 15.20972978121013
0 ICEYE-X9
1 47506U 21006CX  23092.63788942  .00016629  00000-0  81593-3 0  9997
2 47506  97.4021 149.3350 0007680  12.6098 151.4633 15.18145271120998
0 HAWK-2A
1 47505U 21006CW  23091.12438041  .00007701  00000-0  40326-3 0  9991
2 47505  97.3963 147.1717 0009811  21.7266 338.4381 15.16045461120759
0 ION SCV-002
1 47504U 21006CV  23091.67303631  .00006366  00000-0  32445-3 0  9995
2 47504  97.1676 127.6637 0018306 343.1651  16.8973 15.16950035120924
0 KEPLER-11 (DANEEL)
1 47503U 21006CU  23092.73656919  .00015436  00000-0  72672-3 0  9996
2 47503  97.3981 150.0920 0007766  18.0707 342.0802 15.19598645121077
0 HAWK-2C
1 47502U 21006CT  23091.91624936  .00008809  00000-0  46073-3 0  9990
2 47502  97.3959 147.8378 0009717  18.8241 341.3349 15.16046023120871
0 KEPLER-10 (BABY YODA)
1 47501U 21006CS  23092.91822816  .00029069  00000-0  11379-2 0  9998
2 47501  97.4048 152.9625 0006842 351.7238   8.3886 15.25748897121238
0 FLOCK 4S 19
1 47500U 21006CR  23092.69798477  .00040442  00000-0  15383-2 0  9994
2 47500  97.4045 152.5603 0007303 356.4390   3.6795 15.26627802121195
0 FLOCK 4S 40
1 47499U 21006CQ  23091.90957589  .00036028  00000-0  14272-2 0  9996
2 47499  97.4081 151.6953 0007229   1.3489 358.7767 15.25300964121067
0 FLOCK 4S 2
1 47498U 21006CP  23092.67686166  .00107521  00000-0  29966-2 0  9993
2 47498  97.3905 152.3226 0003600 326.5422  33.5594 15.36347852121244
0 FLOCK 4S 26
1 47497U 21006CN  23091.60122554  .00058181  00000-0  18196-2 0  9990
2 47497  97.3915 152.4522 0005077 344.3490  15.7594 15.32923103121165
0 FLOCK 4S 18
1 47496U 21006CM  23091.72479140  .00042873  00000-0  16422-2 0  9999
2 47496  97.4041 151.5954 0007306   3.9230 356.2064 15.26381825121045
0 FLOCK 4S 27
1 47495U 21006CL  23092.71527895  .00016898  00000-0  71037-3 0  9991
2 47495  97.3935 151.3140 0008219 357.1755   2.9434 15.23454733121187
0 FLOCK 4S 3
1 47494U 21006CK  23091.66880388  .00075592  00000-0  25233-2 0  9994
2 47494  97.3915 149.8435 0004607 346.9817  13.1305 15.30745355120995
0 LEMUR 2 MANGO1
1 47493U 21006CJ  23092.92195527  .00025852  00000-0  10338-2 0  9991
2 47493  97.4001 152.0884 0006609 357.8423   2.2786 15.25060802121234
